[
  {
    "name": "STARLINK-32298",
    "noradId": "61525",
    "line1": "1 61525U 24183S   26170.34243169  .00001815  00000+0  70242-4 0  9998",
    "line2": "2 61525  53.1616  29.7214 0001437  91.5209 268.5957 15.31699949 95225"
  },
  {
    "name": "STARLINK-32293",
    "noradId": "61526",
    "line1": "1 61526U 24183T   26169.90153653 -.00002618  00000+0 -76259-4 0  9995",
    "line2": "2 61526  53.1615  32.6541 0001324  78.5001 281.6148 15.30209905 95148"
  },
  {
    "name": "STARLINK-32313",
    "noradId": "61527",
    "line1": "1 61527U 24183U   26169.89520705  .00000138  00000+0  16767-4 0  9991",
    "line2": "2 61527  53.1612  32.6182 0001108  77.6017 282.5108 15.30198568 95142"
  },
  {
    "name": "STARLINK-32319",
    "noradId": "61528",
    "line1": "1 61528U 24183V   26170.58335648  .00044722  00000+0  14442-2 0  9993",
    "line2": "2 61528  53.1601  29.4611 0001315  83.8977  87.6322 15.31702154  5816"
  },
  {
    "name": "STARLINK-32351",
    "noradId": "61529",
    "line1": "1 61529U 24183W   26170.32222082  .00000687  00000+0  35314-4 0  9998",
    "line2": "2 61529  53.1617  27.4881 0001278  96.3022 263.8124 15.30192364 95259"
  },
  {
    "name": "STARLINK-32261",
    "noradId": "61530",
    "line1": "1 61530U 24183X   26169.90902333 -.00000062  00000+0  97577-5 0  9994",
    "line2": "2 61530  53.1612  32.0168 0001315 102.7628 257.3520 15.31702370 95154"
  },
  {
    "name": "STARLINK-32358",
    "noradId": "61531",
    "line1": "1 61531U 24183Y   26169.76338068  .00000898  00000+0  24194-4 0  9997",
    "line2": "2 61531  53.1610  27.5413 0001141  79.8645 280.2492 15.49310637 95204"
  },
  {
    "name": "STARLINK-11354 [DTC]",
    "noradId": "61532",
    "line1": "1 61532U 24184A   26170.09893670  .00006750  00000+0  60420-4 0  9997",
    "line2": "2 61532  53.1591  96.4376 0000941  90.7210 269.3916 15.69752467 96341"
  },
  {
    "name": "STARLINK-11323 [DTC]",
    "noradId": "61533",
    "line1": "1 61533U 24184B   26170.08916789 -.00000436  00000+0  12625-5 0  9995",
    "line2": "2 61533  53.1590  96.3700 0001055 103.5583 256.5552 15.69705130 96343"
  },
  {
    "name": "STARLINK-11338 [DTC]",
    "noradId": "61534",
    "line1": "1 61534U 24184C   26170.09407409 -.00000620  00000+0 -26302-6 0  9995",
    "line2": "2 61534  53.1586  96.4085 0000884  87.1232 272.9887 15.69701322 96345"
  },
  {
    "name": "STARLINK-11362 [DTC]",
    "noradId": "61535",
    "line1": "1 61535U 24184D   26170.07935888  .00000205  00000+0  65557-5 0  9992",
    "line2": "2 61535  53.1599  96.3083 0001259  81.6564 278.4597 15.69704210 96349"
  },
  {
    "name": "STARLINK-11295 [DTC]",
    "noradId": "61536",
    "line1": "1 61536U 24184E   26170.08426312  .00000142  00000+0  60315-5 0  9998",
    "line2": "2 61536  53.1600  96.3446 0001183 101.5338 258.5812 15.69705412 96347"
  },
  {
    "name": "STARLINK-11325 [DTC]",
    "noradId": "61538",
    "line1": "1 61538U 24184G   26170.51522454  .00000701  00000+0  10641-4 0  9999",
    "line2": "2 61538  53.1599  94.0463 0001257 102.0067 258.1092 15.69712760 96415"
  },
  {
    "name": "STARLINK-11332 [DTC]",
    "noradId": "61539",
    "line1": "1 61539U 24184H   26170.51032303  .00001320  00000+0  15755-4 0  9998",
    "line2": "2 61539  53.1600  94.0371 0001306  87.8126 272.3042 15.69710332 96414"
  },
  {
    "name": "STARLINK-11350 [DTC]",
    "noradId": "61540",
    "line1": "1 61540U 24184J   26170.05973500  .00002768  00000+0  27715-4 0  9998",
    "line2": "2 61540  53.1600  96.1847 0001999  46.5195 313.5989 15.69700239 96348"
  },
  {
    "name": "STARLINK-11357 [DTC]",
    "noradId": "61541",
    "line1": "1 61541U 24184K   26170.50061238  .00002743  00000+0  27491-4 0  9999",
    "line2": "2 61541  53.1591  94.6833 0001000  76.0237 284.0892 15.69706136 96408"
  },
  {
    "name": "STARLINK-11322 [DTC]",
    "noradId": "61542",
    "line1": "1 61542U 24184L   26170.49570687  .00004155  00000+0  39140-4 0  9994",
    "line2": "2 61542  53.1593  94.6462 0000960  76.8968 283.2157 15.69707450 97464"
  },
  {
    "name": "STARLINK-11364 [DTC]",
    "noradId": "61543",
    "line1": "1 61543U 24184M   26170.49079993  .00001820  00000+0  19882-4 0  9996",
    "line2": "2 61543  53.1604  94.6165 0001357  98.5884 261.5288 15.69707351 96404"
  },
  {
    "name": "STARLINK-11349 [DTC]",
    "noradId": "61544",
    "line1": "1 61544U 24184N   26170.48589153  .00001227  00000+0  14981-4 0  9996",
    "line2": "2 61544  53.1602  94.5858 0001017  92.3889 267.7245 15.69714542 96402"
  },
  {
    "name": "STARLINK-32406",
    "noradId": "61545",
    "line1": "1 61545U 24184P   26170.52321569 -.00001244  00000+0 -25717-4 0  9997",
    "line2": "2 61545  53.1602 260.5472 0000371 358.1921   1.9080 15.34391896 94107"
  },
  {
    "name": "STARLINK-32445",
    "noradId": "61546",
    "line1": "1 61546U 24184Q   26170.49787946  .00004546  00000+0  14538-3 0  9993",
    "line2": "2 61546  53.1593 260.3954 0001322  67.3192 292.7950 15.34447167 94105"
  },
  {
    "name": "STARLINK-32411",
    "noradId": "61547",
    "line1": "1 61547U 24184R   26170.53583918  .00002888  00000+0  96603-4 0  9993",
    "line2": "2 61547  53.1592 260.6267 0001269  93.3381 266.7767 15.34394692 94105"
  },
  {
    "name": "STARLINK-32424",
    "noradId": "61548",
    "line1": "1 61548U 24184S   26170.56941535 -.00000682  00000+0 -90515-5 0  9999",
    "line2": "2 61548  53.1610 260.1277 0001074  80.9270 279.1854 15.34393306 94113"
  },
  {
    "name": "STARLINK-32389",
    "noradId": "61549",
    "line1": "1 61549U 24184T   26170.56058892 -.00000137  00000+0  74940-5 0  9993",
    "line2": "2 61549  53.1605 260.7833 0001477  82.3334 277.7835 15.30193114 94109"
  },
  {
    "name": "STARLINK-32476",
    "noradId": "61550",
    "line1": "1 61550U 24184U   26170.51059323  .00001293  00000+0  49423-4 0  9990",
    "line2": "2 61550  53.1603 260.4708 0001376  84.9810 275.1350 15.34391520 94101"
  },
  {
    "name": "STARLINK-32366",
    "noradId": "61551",
    "line1": "1 61551U 24184V   26170.55679751 -.00000708  00000+0 -98084-5 0  9998",
    "line2": "2 61551  53.1616 260.0460 0001819  45.3371 314.7780 15.34388415 94119"
  },
  {
    "name": "STARLINK-11356 [DTC]",
    "noradId": "61574",
    "line1": "1 61574U 24187A   26170.26548867 -.00000729  00000+0 -11563-5 0  9997",
    "line2": "2 61574  53.1596 155.5429 0001240 114.6830 245.4317 15.69707000 96731"
  },
  {
    "name": "STARLINK-11376 [DTC]",
    "noradId": "61575",
    "line1": "1 61575U 24187B   26170.26057784 -.00004289  00000+0 -30536-4 0  9996",
    "line2": "2 61575  53.1605 155.5097 0000944  80.1225 279.9899 15.69728053 96658"
  },
  {
    "name": "STARLINK-11372 [DTC]",
    "noradId": "61576",
    "line1": "1 61576U 24187C   26170.19200611  .00000047  00000+0  52420-5 0  9991",
    "line2": "2 61576  53.1596 155.7928 0001036  86.2932 273.8204 15.69705001 96693"
  },
  {
    "name": "STARLINK-11375 [DTC]",
    "noradId": "61577",
    "line1": "1 61577U 24187D   26170.25076854  .00000776  00000+0  11266-4 0  9990",
    "line2": "2 61577  53.1604 155.4484 0001144 105.2857 254.8287 15.69707959 96702"
  },
  {
    "name": "STARLINK-11285 [DTC]",
    "noradId": "61578",
    "line1": "1 61578U 24187E   26170.24586521 -.00000317  00000+0  22453-5 0  9990",
    "line2": "2 61578  53.1606 155.4130 0001273  97.3809 262.7354 15.69705322 96653"
  },
  {
    "name": "STARLINK-11275 [DTC]",
    "noradId": "61579",
    "line1": "1 61579U 24187F   26170.24095950 -.00000177  00000+0  34003-5 0  9990",
    "line2": "2 61579  53.1596 155.3810 0001191  85.2649 274.8505 15.69706204 96655"
  },
  {
    "name": "STARLINK-11342 [DTC]",
    "noradId": "61580",
    "line1": "1 61580U 24187G   26170.23605979 -.00002379  00000+0 -14783-4 0  9998",
    "line2": "2 61580  53.1592 155.3494 0001331  97.5777 262.5392 15.69705631 96757"
  },
  {
    "name": "STARLINK-11374 [DTC]",
    "noradId": "61581",
    "line1": "1 61581U 24187H   26170.23125019 -.00000111  00000+0  39389-5 0  9992",
    "line2": "2 61581  53.1593 156.0482 0001041  97.5814 262.5322 15.69704574 96741"
  },
  {
    "name": "STARLINK-11373 [DTC]",
    "noradId": "61582",
    "line1": "1 61582U 24187J   26170.22634278  .00000354  00000+0  77868-5 0  9996",
    "line2": "2 61582  53.1603 156.0200 0001323  83.4981 276.6188 15.69703251 96695"
  },
  {
    "name": "STARLINK-11368 [DTC]",
    "noradId": "61583",
    "line1": "1 61583U 24187K   26170.22143664 -.00000198  00000+0  32243-5 0  9996",
    "line2": "2 61583  53.1588 155.9809 0001319 138.1186 221.9933 15.69706384 96647"
  },
  {
    "name": "STARLINK-11370 [DTC]",
    "noradId": "61584",
    "line1": "1 61584U 24187L   26170.21653593 -.00000583  00000+0  46581-7 0  9993",
    "line2": "2 61584  53.1588 155.9524 0000931  86.8404 273.2720 15.69703201 96697"
  },
  {
    "name": "STARLINK-11361 [DTC]",
    "noradId": "61585",
    "line1": "1 61585U 24187M   26170.21162562  .00138639  00000+0  11279-2 0  9999",
    "line2": "2 61585  53.1576 155.9192 0000980 112.9311 247.1811 15.69757693 96693"
  },
  {
    "name": "STARLINK-11360 [DTC]",
    "noradId": "61586",
    "line1": "1 61586U 24187N   26170.27039366 -.00000517  00000+0  59207-6 0  9992",
    "line2": "2 61586  53.1584 155.5726 0001127  62.2604 297.8528 15.69706406 96758"
  },
  {
    "name": "STARLINK-32353",
    "noradId": "61587",
    "line1": "1 61587U 24187P   26170.55877024  .00018439  00000+0  55558-3 0  9998",
    "line2": "2 61587  53.1599 310.1962 0000791 106.8561 253.2529 15.34396825 94644"
  },
  {
    "name": "STARLINK-32325",
    "noradId": "61588",
    "line1": "1 61588U 24187Q   26170.57771105  .00000969  00000+0  39827-4 0  9995",
    "line2": "2 61588  53.1615 310.3224 0001215 114.2941 245.8188 15.34387382 94707"
  },
  {
    "name": "STARLINK-32416",
    "noradId": "61589",
    "line1": "1 61589U 24187R   26170.61061865 -.00000363  00000+0  38266-6 0  9993",
    "line2": "2 61589  53.1615 295.6069 0001307 101.8229 258.2920 15.34410832 94915"
  }
]